[{"OBJECT_NAME":"STARLINK-31863","OBJECT_ID":"2024-093H","EPOCH":"2026-03-09T11:03:00.877248","MEAN_MOTION":15.27574977,"ECCENTRICITY":0.00012195,"INCLINATION":43.0004,"RA_OF_ASC_NODE":209.9087,"ARG_OF_PERICENTER":266.9233,"MEAN_ANOMALY":93.1479,"EPHEMERIS_TYPE":0,"CLASSIFICATION_TYPE":"U","NORAD_CAT_ID":59789,"ELEMENT_SET_NO":999,"REV_AT_EPOCH":10266,"BSTAR":4.3257633e-5,"MEAN_MOTION_DOT":9.28e-6,"MEAN_MOTION_DDOT":0},{"OBJECT_NAME":"TEVEL2-8","OBJECT_ID":"2025-052AF","EPOCH":"2026-03-09T16:02:08.542752","MEAN_MOTION":15.28392908,"ECCENTRICITY":0.0008031,"INCLINATION":97.4055,"RA_OF_ASC_NODE":324.2923,"ARG_OF_PERICENTER":124.9191,"MEAN_ANOMALY":235.2804,"EPHEMERIS_TYPE":0,"CLASSIFICATION_TYPE":"U","NORAD_CAT_ID":63239,"ELEMENT_SET_NO":999,"REV_AT_EPOCH":5480,"BSTAR":0.00069303947,"MEAN_MOTION_DOT":0.0001913,"MEAN_MOTION_DDOT":0}]
